NORAD_CAT_ID,OBJECT_NAME,OBJECT_TYPE,EPOCH,MEAN_MOTION,ECCENTRICITY,INCLINATION,RA_OF_ASC_NODE,ARG_OF_PERICENTER,MEAN_ANOMALY,BSTAR,MEAN_MOTION_DOT,MEAN_MOTION_DDOT,TLE_LINE0,TLE_LINE1,TLE_LINE2,SEMIMAJOR_AXIS,PERIOD,APOGEE,PERIGEE,DECAYED
53980.0,STARLINK-5133,PAYLOAD,2023-04-18 11:23:07,15.08836265,0.0001206,53.2168,280.3752,64.8654,295.2464,5.1069e-05,5.25e-06,0.0,0 STARLINK-5133,1 53980U 22125S   23108.47439613  .00000525  00000-0  51069-4 0  9995,2 53980  53.2168 280.3752 0001206  64.8654 295.2464 15.08836265 30011,6917.892,95.438,540.591,538.923,0.0
53980.0,STARLINK-5133,PAYLOAD,2023-04-18 17:44:39,15.08842756,0.0001227,53.2163,279.1863,63.9342,296.1777,0.00010288,1.35e-05,0.0,0 STARLINK-5133,1 53980U 22125S   23108.73935103  .00001350  00000-0  10288-3 0  9993,2 53980  53.2163 279.1863 0001227  63.9342 296.1777 15.08842756 29985,6917.872,95.437,540.586,538.888,0.0
53980.0,STARLINK-5133,PAYLOAD,2023-04-19 04:52:22,15.08839839,0.0001146,53.2162,277.1051,62.0342,298.0766,3.2404e-05,2.28e-06,0.0,0 STARLINK-5133,1 53980U 22125S   23109.20303335  .00000228  00000-0  32404-4 0  9990,2 53980  53.2162 277.1051 0001146  62.0342 298.0766 15.08839839 30058,6917.881,95.438,540.539,538.953,0.0
53980.0,STARLINK-5133,PAYLOAD,2023-04-19 17:35:26,15.08841027,9.18e-05,53.2161,274.7254,71.5451,288.5641,0.00011354,1.52e-05,0.0,0 STARLINK-5133,1 53980U 22125S   23109.73295081  .00001520  00000-0  11354-3 0  9992,2 53980  53.2161 274.7254 0000918  71.5451 288.5641 15.08841027 30134,6917.877,95.437,540.377,539.107,0.0
53980.0,STARLINK-5133,PAYLOAD,2023-04-20 11:04:42,15.08830094,0.0001259,53.2167,271.4538,73.6558,286.4572,4.8332e-05,4.81e-06,0.0,0 STARLINK-5133,1 53980U 22125S   23110.46160149  .00000481  00000-0  48332-4 0  9992,2 53980  53.2167 271.4538 0001259  73.6558 286.4572 15.08830094 30243,6917.911,95.438,540.647,538.905,0.0
53980.0,STARLINK-5133,PAYLOAD,2023-04-20 17:26:14,15.0883715,0.0001233,53.2142,270.2648,83.8513,276.2619,3.9553e-05,3.42e-06,0.0,0 STARLINK-5133,1 53980U 22125S   23110.72655512  .00000342  00000-0  39553-4 0  9995,2 53980  53.2142 270.2648 0001233  83.8513 276.2619 15.08837150 30352,6917.889,95.438,540.607,538.901,0.0
53980.0,STARLINK-5133,PAYLOAD,2023-04-21 02:58:33,15.08832064,7.88e-05,53.216,268.4807,86.4786,273.6296,-0.00015472,-2.749e-05,0.0,0 STARLINK-5133,1 53980U 22125S   23111.12399640 -.00002749  00000-0 -15472-3 0  9995,2 53980  53.2160 268.4807 0000788  86.4786 273.6296 15.08832064 30343,6917.905,95.438,540.315,539.225,0.0
53980.0,STARLINK-5133,PAYLOAD,2023-04-21 17:17:01,15.08838674,6.56e-05,53.2143,265.8053,77.6528,282.4537,0.0001287,1.761e-05,0.0,0 STARLINK-5133,1 53980U 22125S   23111.72015508  .00001761  00000-0  12870-3 0  9999,2 53980  53.2143 265.8053 0000656  77.6528 282.4537 15.08838674 30437,6917.884,95.438,540.203,539.296,0.0
53980.0,STARLINK-5133,PAYLOAD,2023-04-22 02:49:19,15.08857904,0.0001146,53.2159,264.0181,87.0157,273.0966,0.00024043,3.542e-05,0.0,0 STARLINK-5133,1 53980U 22125S   23112.11758299  .00003542  00000-0  24043-3 0  9998,2 53980  53.2159 264.0181 0001146  87.0157 273.0966 15.08857904 30490,6917.826,95.436,540.483,538.898,0.0
53980.0,STARLINK-5133,PAYLOAD,2023-04-22 17:07:48,15.08846162,0.0001132,53.2159,261.343,87.5946,272.5176,0.00019637,2.839e-05,0.0,0 STARLINK-5133,1 53980U 22125S   23112.71375225  .00002839  00000-0  19637-3 0  9999,2 53980  53.2159 261.3430 0001132  87.5946 272.5176 15.08846162 30652,6917.862,95.437,540.51,538.943,0.0
53980.0,STARLINK-5133,PAYLOAD,2023-04-22 20:18:34,15.08850563,0.0001185,53.2159,260.7479,81.7443,278.3683,0.00027014,4.015e-05,0.0,0 STARLINK-5133,1 53980U 22125S   23112.84623062  .00004015  00000-0  27014-3 0  9994,2 53980  53.2159 260.7479 0001185  81.7443 278.3683 15.08850563 30606,6917.848,95.437,540.533,538.893,0.0
53980.0,STARLINK-5133,PAYLOAD,2023-04-23 09:01:40,15.08831242,0.0001333,53.2159,258.3682,83.4143,276.7001,-7.5549e-05,-1.49e-05,0.0,0 STARLINK-5133,1 53980U 22125S   23113.37615910 -.00001490  00000-0 -75549-4 0  9999,2 53980  53.2159 258.3682 0001333  83.4143 276.7001 15.08831242 30751,6917.907,95.438,540.694,538.85,0.0
53980.0,STARLINK-5133,PAYLOAD,2023-04-23 10:37:03,15.08830989,0.0001273,53.2161,258.0709,85.4543,274.6594,1.3517e-05,-7.3e-07,0.0,0 STARLINK-5133,1 53980U 22125S   23113.44239918 -.00000073  00000-0  13517-4 0  9999,2 53980  53.2161 258.0709 0001273  85.4543 274.6594 15.08830989 30694,6917.908,95.438,540.654,538.892,0.0
53980.0,STARLINK-5133,PAYLOAD,2023-04-23 16:58:36,15.08848578,0.0001392,53.2167,256.8817,88.0524,272.0628,0.0016219,0.00025625,0.0,0 STARLINK-5133,1 53980U 22125S   23113.70736299  .00025625  00000-0  16219-2 0  9991,2 53980  53.2167 256.8817 0001392  88.0524 272.0628 15.08848578 30802,6917.854,95.437,540.682,538.756,0.0
53980.0,STARLINK-5133,PAYLOAD,2023-04-24 08:52:26,15.08915182,0.0001283,53.2166,253.9092,84.0888,276.025,0.0037752,0.00060434,0.0,0 STARLINK-5133,1 53980U 22125S   23114.36975214  .00060434  00000-0  37752-2 0  9998,2 53980  53.2166 253.9092 0001283  84.0888 276.0250 15.08915182 30836,6917.651,95.433,540.403,538.628,0.0
53980.0,STARLINK-5133,PAYLOAD,2023-04-25 08:43:13,15.08773767,0.0001133,53.2165,249.4495,129.5025,230.6067,0.00048891,7.488e-05,0.0,0 STARLINK-5133,1 53980U 22125S   23115.36334977  .00007488  00000-0  48891-3 0  9991,2 53980  53.2165 249.4495 0001133 129.5025 230.6067 15.08773767 30983,6918.083,95.442,540.732,539.164,0.0
53980.0,STARLINK-5133,PAYLOAD,2023-04-26 11:44:49,15.08826855,0.0001075,53.2155,244.394,112.96,247.1506,0.0015467,0.00024405,0.0,0 STARLINK-5133,1 53980U 22125S   23116.48945989  .00024405  00000-0  15467-2 0  9996,2 53980  53.2155 244.3940 0001075 112.9600 247.1506 15.08826855 31159,6917.921,95.438,540.529,539.042,0.0
53980.0,STARLINK-5133,PAYLOAD,2023-04-26 19:41:45,15.08844671,0.0001018,53.2148,242.9078,106.5574,253.553,0.0016494,0.00026063,0.0,0 STARLINK-5133,1 53980U 22125S   23116.82066058  .00026063  00000-0  16494-2 0  9998,2 53980  53.2148 242.9078 0001018 106.5574 253.5530 15.08844671 31203,6917.866,95.437,540.435,539.027,0.0
53980.0,STARLINK-5133,PAYLOAD,2023-04-27 11:35:36,15.08865759,0.0001008,53.2156,239.9345,100.1764,259.9341,0.0014404,0.00022726,0.0,0 STARLINK-5133,1 53980U 22125S   23117.48305579  .00022726  00000-0  14404-2 0  9996,2 53980  53.2156 239.9345 0001008 100.1764 259.9341 15.08865759 31306,6917.802,95.436,540.364,538.969,0.0
53980.0,STARLINK-5133,PAYLOAD,2023-04-28 11:26:21,15.08863136,8.46e-05,53.2158,235.4742,96.0586,264.0503,0.00044279,6.771e-05,0.0,0 STARLINK-5133,1 53980U 22125S   23118.47664255  .00006771  00000-0  44279-3 0  9991,2 53980  53.2158 235.4742 0000846  96.0586 264.0503 15.08863136 31522,6917.81,95.436,540.26,539.089,0.0
53980.0,STARLINK-5133,PAYLOAD,2023-04-29 00:09:26,15.08860879,7.81e-05,53.2169,233.0951,89.5939,270.5142,0.00066676,0.00010346,0.0,0 STARLINK-5133,1 53980U 22125S   23119.00655861  .00010346  00000-0  66676-3 0  9992,2 53980  53.2169 233.0951 0000781  89.5939 270.5142 15.08860879 31608,6917.817,95.436,540.222,539.141,0.0
53980.0,STARLINK-5133,PAYLOAD,2023-04-29 12:52:31,15.08851518,0.0002395,53.219,230.7253,138.3264,221.7911,3.4746e-05,2.65e-06,0.0,0 STARLINK-5133,1 53980U 22125S   23119.53647876  .00000265  00000-0  34746-4 0  9990,2 53980  53.2190 230.7253 0002395 138.3264 221.7911 15.08851518 31611,6917.845,95.437,541.367,538.053,0.0
53980.0,STARLINK-5133,PAYLOAD,2023-04-29 14:27:54,15.08844656,0.0001437,53.2176,230.4218,116.8769,243.237,0.00010303,1.352e-05,0.0,0 STARLINK-5133,1 53980U 22125S   23119.60271959  .00001352  00000-0  10303-3 0  9993,2 53980  53.2176 230.4218 0001437 116.8769 243.2370 15.08844656 31691,6917.866,95.437,540.725,538.737,0.0
53980.0,STARLINK-5133,PAYLOAD,2023-04-30 12:43:19,15.08843239,0.0001289,53.217,226.2564,102.8774,257.2362,0.00027604,4.108e-05,0.0,0 STARLINK-5133,1 53980U 22125S   23120.53008163  .00004108  00000-0  27604-3 0  9996,2 53980  53.2170 226.2564 0001289 102.8774 257.2362 15.08843239 31768,6917.87,95.437,540.627,538.844,0.0
53980.0,STARLINK-5133,PAYLOAD,2023-04-30 17:29:28,15.08849488,0.0001201,53.216,225.3632,101.8338,258.2789,0.00017782,2.544e-05,0.0,0 STARLINK-5133,1 53980U 22125S   23120.72879781  .00002544  00000-0  17782-3 0  9997,2 53980  53.2160 225.3632 0001201 101.8338 258.2789 15.08849488 31869,6917.851,95.437,540.547,538.886,0.0
53980.0,STARLINK-5133,PAYLOAD,2023-05-01 10:58:43,15.08833626,0.0001221,53.2172,222.0926,93.7428,266.3704,6.5019e-06,-1.84e-06,0.0,0 STARLINK-5133,1 53980U 22125S   23121.45744683 -.00000184  00000-0  65019-5 0  9997,2 53980  53.2172 222.0926 0001221  93.7428 266.3704 15.08833626 31979,6917.9,95.438,540.61,538.92,0.0
53980.0,STARLINK-5133,PAYLOAD,2023-05-01 12:34:06,15.08836152,0.0001293,53.2172,221.793,107.9847,252.1286,-1.0674e-05,-4.58e-06,0.0,0 STARLINK-5133,1 53980U 22125S   23121.52368460 -.00000458  00000-0 -10674-4 0  9991,2 53980  53.2172 221.7930 0001293 107.9847 252.1286 15.08836152 31911,6917.892,95.438,540.652,538.863,0.0
53980.0,STARLINK-5133,PAYLOAD,2023-05-01 15:44:52,15.08836716,0.000122,53.2169,221.1999,92.2613,267.8519,5.3541e-05,5.64e-06,0.0,0 STARLINK-5133,1 53980U 22125S   23121.65616639  .00000564  00000-0  53541-4 0  9995,2 53980  53.2169 221.1999 0001220  92.2613 267.8519 15.08836716 31933,6917.89,95.438,540.599,538.911,0.0
53980.0,STARLINK-5133,PAYLOAD,2023-05-02 12:24:53,15.08855525,0.0001087,53.2165,217.3342,82.7223,277.3893,0.00050846,7.817e-05,0.0,0 STARLINK-5133,1 53980U 22125S   23122.51728084  .00007817  00000-0  50846-3 0  9991,2 53980  53.2165 217.3342 0001087  82.7223 277.3893 15.08855525 32133,6917.833,95.437,540.45,538.946,0.0
53980.0,STARLINK-5133,PAYLOAD,2023-05-02 14:00:16,15.08858394,0.0001094,53.2166,217.0368,87.3839,272.7279,0.00072933,0.00011344,0.0,0 STARLINK-5133,1 53980U 22125S   23122.58352068  .00011344  00000-0  72933-3 0  9994,2 53980  53.2166 217.0368 0001094  87.3839 272.7279 15.08858394 32078,6917.824,95.436,540.446,538.932,0.0
